{
    "links": {
        "self": "http://www.neowsapp.com/rest/v1/neo/3827432?api_key=iIulBulltgU6a56xZRHN4H3l9WmuAYTsLGpBGhQ2"
    },
    "id": "3827432",
    "neo_reference_id": "3827432",
    "name": "(2018 RZ3)",
    "designation": "2018 RZ3",
    "nasa_jpl_url": "http://ssd.jpl.nasa.gov/sbdb.cgi?sstr=3827432",
    "absolute_magnitude_h": 23.9,
    "estimated_diameter": {
        "kilometers": {
            "estimated_diameter_min": 0.04411182,
            "estimated_diameter_max": 0.0986370281
        },
        "meters": {
            "estimated_diameter_min": 44.1118199997,
            "estimated_diameter_max": 98.6370281305
        },
        "miles": {
            "estimated_diameter_min": 0.0274098057,
            "estimated_diameter_max": 0.0612901888
        },
        "feet": {
            "estimated_diameter_min": 144.7238235278,
            "estimated_diameter_max": 323.6123073718
        }
    },
    "is_potentially_hazardous_asteroid": false,
    "close_approach_data": [
        {
            "close_approach_date": "2018-09-08",
            "close_approach_date_full": "2018-Sep-08 16:38",
            "epoch_date_close_approach": 1536424680000,
            "relative_velocity": {
                "kilometers_per_second": "15.3309415189",
                "kilometers_per_hour": "55191.3894680933",
                "miles_per_hour": "34293.7830836605"
            },
            "miss_distance": {
                "astronomical": "0.069479578",
                "lunar": "27.027555842",
                "kilometers": "10393996.87729886",
                "miles": "6458530.173529868"
            },
            "orbiting_body": "Earth"
        }
    ],
    "orbital_data": {
        "orbit_id": "2",
        "orbit_determination_date": "2018-09-13 07:07:39",
        "first_observation_date": "2018-09-10",
        "last_observation_date": "2018-09-13",
        "data_arc_in_days": 3,
        "observations_used": 39,
        "orbit_uncertainty": "8",
        "minimum_orbit_intersection": ".0636181",
        "jupiter_tisserand_invariant": "4.580",
        "epoch_osculation": "2458372.5",
        "eccentricity": ".2546744256163221",
        "semi_major_axis": "1.408293295361765",
        "inclination": "28.39038581070453",
        "ascending_node_longitude": "343.7728274743819",
        "orbital_period": "610.4331277234321",
        "perihelion_distance": "1.04963700926619",
        "perihelion_argument": "26.50163882348811",
        "aphelion_distance": "1.76694958145734",
        "perihelion_time": "2458395.811716260885",
        "mean_anomaly": "346.2520274985455",
        "mean_motion": ".5897451885394801",
        "equinox": "J2000",
        "orbit_class": {
            "orbit_class_type": "AMO",
            "orbit_class_description": "Near-Earth asteroid orbits similar to that of 1221 Amor",
            "orbit_class_range": "1.017 AU < q (perihelion) < 1.3 AU"
        }
    },
    "is_sentry_object": false
}